{"type": "FeatureCollection", "features": [ {"type": "Feature", "properties": {"norad_id": 29795, "name": "FENGYUN 1C DEB", "group": "fengyun-1c-debris", "lat": 48.01006244190463, "lon": 105.64233595047715, "alt_km": 967.0227077592417, "timestamp": "2025-12-12T05:47:29.042284+00:00", "meta": {"OBJECT_NAME": "FENGYUN 1C DEB", "OBJECT_ID": "1999-025CM", "EPOCH": "2025-12-11T14:20:54.355776", "MEAN_MOTION": 13.92908636, "ECCENTRICITY": 0.01110369, "INCLINATION": 98.8703, "RA_OF_ASC_NODE": 115.0169, "ARG_OF_PERICENTER": 279.3658, "MEAN_ANOMALY": 143.697, "EPHEMERIS_TYPE": 0, "CLASSIFICATION_TYPE": "U", "NORAD_CAT_ID": 29795, "ELEMENT_SET_NO": 999, "REV_AT_EPOCH": 96049, "BSTAR": 0.00031937448, "MEAN_MOTION_DOT": 3.93e-06, "MEAN_MOTION_DDOT": 0}, "tle": {"line1": "1 29795U 99025CM  25345.59785134  .00000393  00000+0  31937-3 0  9998", "line2": "2 29795  98.8703 115.0169 0111036 279.3658 143.6970 13.92908636960499"}}, "geometry": {"type": "Point", "coordinates": [105.64233595047715, 48.01006244190463]}}, {"type": "Feature", "properties": {"norad_id": 29796, "name": "FENGYUN 1C DEB", "group": "fengyun-1c-debris", "lat": -2.7949559903516, "lon": 38.55571967806868, "alt_km": 853.1221124380581, "timestamp": "2025-12-12T05:47:29.042294+00:00", "meta": {"OBJECT_NAME": "FENGYUN 1C DEB", "OBJECT_ID": "1999-025CN", "EPOCH": "2025-12-11T15:13:59.927232", "MEAN_MOTION": 14.1233182, "ECCENTRICITY": 0.00518336, "INCLINATION": 98.8649, "RA_OF_ASC_NODE": 37.5193, "ARG_OF_PERICENTER": 271.0491, "MEAN_ANOMALY": 243.2339, "EPHEMERIS_TYPE": 0, "CLASSIFICATION_TYPE": "U", "NORAD_CAT_ID": 29796, "ELEMENT_SET_NO": 999, "REV_AT_EPOCH": 97045, "BSTAR": 0.00090783326, "MEAN_MOTION_DOT": 1.649e-05, "MEAN_MOTION_DDOT": 0}, "tle": {"line1": "1 29796U 99025CN  25345.63472138  .00001649  00000+0  90783-3 0  9990", "line2": "2 29796  98.8649  37.5193 0051833 271.0491 243.2339 14.12331820970457"}}, "geometry": {"type": "Point", "coordinates": [38.55571967806868, -2.7949559903516]}}, {"type": "Feature", "properties": {"norad_id": 29798, "name": "FENGYUN 1C DEB", "group": "fengyun-1c-debris", "lat": 21.567733842660736, "lon": 46.42708371168709, "alt_km": 919.4451258178115, "timestamp": "2025-12-12T05:47:29.042304+00:00", "meta": {"OBJECT_NAME": "FENGYUN 1C DEB", "OBJECT_ID": "1999-025CQ", "EPOCH": "2025-12-11T16:42:12.614976", "MEAN_MOTION": 13.99562101, "ECCENTRICITY": 0.01115212, "INCLINATION": 99.2951, "RA_OF_ASC_NODE": 49.5852, "ARG_OF_PERICENTER": 275.3262, "MEAN_ANOMALY": 239.3198, "EPHEMERIS_TYPE": 0, "CLASSIFICATION_TYPE": "U", "NORAD_CAT_ID": 29798, "ELEMENT_SET_NO": 999, "REV_AT_EPOCH": 95910, "BSTAR": 0.0020026492, "MEAN_MOTION_DOT": 3.038e-05, "MEAN_MOTION_DDOT": 0}, "tle": {"line1": "1 29798U 99025CQ  25345.69597934  .00003038  00000+0  20026-2 0  9996", "line2": "2 29798  99.2951  49.5852 0111521 275.3262 239.3198 13.99562101959109"}}, "geometry": {"type": "Point", "coordinates": [46.42708371168709, 21.567733842660736]}}, {"type": "Feature", "properties": {"norad_id": 29800, "name": "FENGYUN 1C DEB", "group": "fengyun-1c-debris", "lat": -9.283915166316618, "lon": -173.4663961295869, "alt_km": 827.2663003882526, "timestamp": "2025-12-12T05:47:29.042314+00:00", "meta": {"OBJECT_NAME": "FENGYUN 1C DEB", "OBJECT_ID": "1999-025CS", "EPOCH": "2025-12-10T23:50:01.654944", "MEAN_MOTION": 13.98548648, "ECCENTRICITY": 0.01334633, "INCLINATION": 98.2897, "RA_OF_ASC_NODE": 6.7701, "ARG_OF_PERICENTER": 232.1976, "MEAN_ANOMALY": 156.9457, "EPHEMERIS_TYPE": 0, "CLASSIFICATION_TYPE": "U", "NORAD_CAT_ID": 29800, "ELEMENT_SET_NO": 999, "REV_AT_EPOCH": 95552, "BSTAR": 0.0026591185, "MEAN_MOTION_DOT": 4.076e-05, "MEAN_MOTION_DDOT": 0}, "tle": {"line1": "1 29800U 99025CS  25344.99307471  .00004076  00000+0  26591-2 0  9993", "line2": "2 29800  98.2897   6.7701 0133463 232.1976 156.9457 13.98548648955524"}}, "geometry": {"type": "Point", "coordinates": [-173.4663961295869, -9.283915166316618]}}, {"type": "Feature", "properties": {"norad_id": 29801, "name": "FENGYUN 1C DEB", "group": "fengyun-1c-debris", "lat": 47.95000330879453, "lon": -122.6288043604566, "alt_km": 823.6983087868821, "timestamp": "2025-12-12T05:47:29.042324+00:00", "meta": {"OBJECT_NAME": "FENGYUN 1C DEB", "OBJECT_ID": "1999-025CT", "EPOCH": "2025-12-11T16:16:47.163360", "MEAN_MOTION": 14.35895099, "ECCENTRICITY": 0.0102832, "INCLINATION": 98.7949, "RA_OF_ASC_NODE": 246.6802, "ARG_OF_PERICENTER": 270.5569, "MEAN_ANOMALY": 108.9299, "EPHEMERIS_TYPE": 0, "CLASSIFICATION_TYPE": "U", "NORAD_CAT_ID": 29801, "ELEMENT_SET_NO": 999, "REV_AT_EPOCH": 98926, "BSTAR": 0.00030914472, "MEAN_MOTION_DOT": 9.03e-06, "MEAN_MOTION_DDOT": 0}, "tle": {"line1": "1 29801U 99025CT  25345.67832365  .00000903  00000+0  30914-3 0  9995", "line2": "2 29801  98.7949 246.6802 0102832 270.5569 108.9299 14.35895099989261"}}, "geometry": {"type": "Point", "coordinates": [-122.6288043604566, 47.95000330879453]}}, {"type": "Feature", "properties": {"norad_id": 29802, "name": "FENGYUN 1C DEB", "group": "fengyun-1c-debris", "lat": -16.919188449887876, "lon": 97.97849307330807, "alt_km": 664.4716260452342, "timestamp": "2025-12-12T05:47:29.042335+00:00", "meta": {"OBJECT_NAME": "FENGYUN 1C DEB", "OBJECT_ID": "1999-025CU", "EPOCH": "2025-12-11T20:34:43.750848", "MEAN_MOTION": 14.62283872, "ECCENTRICITY": 0.00370971, "INCLINATION": 98.6191, "RA_OF_ASC_NODE": 94.9337, "ARG_OF_PERICENTER": 341.5169, "MEAN_ANOMALY": 141.9291, "EPHEMERIS_TYPE": 0, "CLASSIFICATION_TYPE": "U", "NORAD_CAT_ID": 29802, "ELEMENT_SET_NO": 999, "REV_AT_EPOCH": 98460, "BSTAR": 0.0036991033, "MEAN_MOTION_DOT": 0.00018842, "MEAN_MOTION_DDOT": 0}, "tle": {"line1": "1 29802U 99025CU  25345.85745082  .00018842  00000+0  36991-2 0  9996", "line2": "2 29802  98.6191  94.9337 0037097 341.5169 141.9291 14.62283872984604"}}, "geometry": {"type": "Point", "coordinates": [97.97849307330807, -16.919188449887876]}}, {"type": "Feature", "properties": {"norad_id": 29804, "name": "FENGYUN 1C DEB", "group": "fengyun-1c-debris", "lat": 57.049749671212595, "lon": -19.37022332329024, "alt_km": 902.5064834295108, "timestamp": "2025-12-12T05:47:29.042345+00:00", "meta": {"OBJECT_NAME": "FENGYUN 1C DEB", "OBJECT_ID": "1999-025CW", "EPOCH": "2025-12-12T00:42:45.146880", "MEAN_MOTION": 14.04322314, "ECCENTRICITY": 0.00972082, "INCLINATION": 98.8056, "RA_OF_ASC_NODE": 354.2605, "ARG_OF_PERICENTER": 303.8502, "MEAN_ANOMALY": 124.0526, "EPHEMERIS_TYPE": 0, "CLASSIFICATION_TYPE": "U", "NORAD_CAT_ID": 29804, "ELEMENT_SET_NO": 999, "REV_AT_EPOCH": 96884, "BSTAR": 0.00018271664, "MEAN_MOTION_DOT": 2.59e-06, "MEAN_MOTION_DDOT": 0}, "tle": {"line1": "1 29804U 99025CW  25346.02968920  .00000259  00000+0  18272-3 0  9992", "line2": "2 29804  98.8056 354.2605 0097208 303.8502 124.0526 14.04322314968842"}}, "geometry": {"type": "Point", "coordinates": [-19.37022332329024, 57.049749671212595]}}, {"type": "Feature", "properties": {"norad_id": 29805, "name": "FENGYUN 1C DEB", "group": "fengyun-1c-debris", "lat": -78.35857840307375, "lon": 91.50269540693564, "alt_km": 899.3727959130038, "timestamp": "2025-12-12T05:47:29.042355+00:00", "meta": {"OBJECT_NAME": "FENGYUN 1C DEB", "OBJECT_ID": "1999-025CX", "EPOCH": "2025-12-11T14:27:03.396096", "MEAN_MOTION": 13.72656474, "ECCENTRICITY": 0.01879663, "INCLINATION": 99.4553, "RA_OF_ASC_NODE": 36.8882, "ARG_OF_PERICENTER": 232.7371, "MEAN_ANOMALY": 125.6507, "EPHEMERIS_TYPE": 0, "CLASSIFICATION_TYPE": "U", "NORAD_CAT_ID": 29805, "ELEMENT_SET_NO": 999, "REV_AT_EPOCH": 94687, "BSTAR": 0.00024022895, "MEAN_MOTION_DOT": 2.05e-06, "MEAN_MOTION_DDOT": 0}, "tle": {"line1": "1 29805U 99025CX  25345.60212264  .00000205  00000+0  24023-3 0  9991", "line2": "2 29805  99.4553  36.8882 0187966 232.7371 125.6507 13.72656474946873"}}, "geometry": {"type": "Point", "coordinates": [91.50269540693564, -78.35857840307375]}}, {"type": "Feature", "properties": {"norad_id": 29806, "name": "FENGYUN 1C DEB", "group": "fengyun-1c-debris", "lat": 50.78377947363983, "lon": -8.78588221073765, "alt_km": 866.337728096596, "timestamp": "2025-12-12T05:47:29.042365+00:00", "meta": {"OBJECT_NAME": "FENGYUN 1C DEB", "OBJECT_ID": "1999-025CY", "EPOCH": "2025-12-12T00:44:10.806432", "MEAN_MOTION": 14.12004225, "ECCENTRICITY": 0.00275874, "INCLINATION": 98.7127, "RA_OF_ASC_NODE": 1.8404, "ARG_OF_PERICENTER": 253.9272, "MEAN_ANOMALY": 167.5671, "EPHEMERIS_TYPE": 0, "CLASSIFICATION_TYPE": "U", "NORAD_CAT_ID": 29806, "ELEMENT_SET_NO": 999, "REV_AT_EPOCH": 97129, "BSTAR": 0.00075143228, "MEAN_MOTION_DOT": 1.337e-05, "MEAN_MOTION_DDOT": 0}, "tle": {"line1": "1 29806U 99025CY  25346.03068063  .00001337  00000+0  75143-3 0  9992", "line2": "2 29806  98.7127   1.8404 0027587 253.9272 167.5671 14.12004225971299"}}, "geometry": {"type": "Point", "coordinates": [-8.78588221073765, 50.78377947363983]}}, {"type": "Feature", "properties": {"norad_id": 29807, "name": "FENGYUN 1C DEB", "group": "fengyun-1c-debris", "lat": 57.256103229249966, "lon": -175.25842926317753, "alt_km": 907.2889152883763, "timestamp": "2025-12-12T05:47:29.042375+00:00", "meta": {"OBJECT_NAME": "FENGYUN 1C DEB", "OBJECT_ID": "1999-025CZ", "EPOCH": "2025-12-12T00:06:08.439840", "MEAN_MOTION": 14.08656897, "ECCENTRICITY": 0.00795261, "INCLINATION": 98.7549, "RA_OF_ASC_NODE": 350.6467, "ARG_OF_PERICENTER": 334.0311, "MEAN_ANOMALY": 25.6878, "EPHEMERIS_TYPE": 0, "CLASSIFICATION_TYPE": "U", "NORAD_CAT_ID": 29807, "ELEMENT_SET_NO": 999, "REV_AT_EPOCH": 97084, "BSTAR": 0.00042264325, "MEAN_MOTION_DOT": 7.06e-06, "MEAN_MOTION_DDOT": 0}, "tle": {"line1": "1 29807U 99025CZ  25346.00426435  .00000706  00000+0  42264-3 0  9998", "line2": "2 29807  98.7549 350.6467 0079526 334.0311  25.6878 14.08656897970843"}}, "geometry": {"type": "Point", "coordinates": [-175.25842926317753, 57.256103229249966]}}]}